[{"OBJECT_NAME":"BRO-8","OBJECT_ID":"2023-001C","EPOCH":"2026-03-09T23:04:57.447264","MEAN_MOTION":15.43180129,"ECCENTRICITY":0.000786,"INCLINATION":97.3339,"RA_OF_ASC_NODE":133.0927,"ARG_OF_PERICENTER":121.0914,"MEAN_ANOMALY":239.1106,"EPHEMERIS_TYPE":0,"CLASSIFICATION_TYPE":"U","NORAD_CAT_ID":55011,"ELEMENT_SET_NO":999,"REV_AT_EPOCH":17687,"BSTAR":0.00076718898,"MEAN_MOTION_DOT":0.00034068,"MEAN_MOTION_DDOT":0},{"OBJECT_NAME":"OBJECT G","OBJECT_ID":"2023-072G","EPOCH":"2026-03-09T22:55:55.975872","MEAN_MOTION":15.44986579,"ECCENTRICITY":0.00041016,"INCLINATION":97.502,"RA_OF_ASC_NODE":273.2074,"ARG_OF_PERICENTER":355.3073,"MEAN_ANOMALY":4.8136,"EPHEMERIS_TYPE":0,"CLASSIFICATION_TYPE":"U","NORAD_CAT_ID":56749,"ELEMENT_SET_NO":999,"REV_AT_EPOCH":15511,"BSTAR":0.00066698496,"MEAN_MOTION_DOT":0.00031433,"MEAN_MOTION_DDOT":0}]
