BRO-8                   
1 55011U 23001C   26068.96177601  .00034068  00000+0  76719-3 0  9990
2 55011  97.3339 133.0927 0007860 121.0914 239.1106 15.43180129176877
2023-072G               
1 56749U 23072G   26068.95550898  .00031433  00000+0  66698-3 0  9997
2 56749  97.5020 273.2074 0004101 355.3073   4.8136 15.44986579155116
